{"type": "FeatureCollection", "features": [ {"type": "Feature", "properties": {"norad_id": 30914, "name": "FENGYUN 1C DEB", "group": "fengyun-1c-debris", "lat": 66.44857272898294, "lon": 88.44136706601113, "alt_km": 1559.6106042008732, "timestamp": "2025-12-27T15:27:11.470153+00:00", "meta": {"OBJECT_NAME": "FENGYUN 1C DEB", "OBJECT_ID": "1999-025AZC", "EPOCH": "2025-12-23T09:59:19.017312", "MEAN_MOTION": 13.08882678, "ECCENTRICITY": 0.05169044, "INCLINATION": 99.9832, "RA_OF_ASC_NODE": 240.6486, "ARG_OF_PERICENTER": 330.1456, "MEAN_ANOMALY": 27.1068, "EPHEMERIS_TYPE": 0, "CLASSIFICATION_TYPE": "U", "NORAD_CAT_ID": 30914, "ELEMENT_SET_NO": 999, "REV_AT_EPOCH": 59215, "BSTAR": 0.0026040863, "MEAN_MOTION_DOT": 1.674e-05, "MEAN_MOTION_DDOT": 0}, "tle": {"line1": "1 30914U 99025AZC 25357.41619233  .00001674  00000+0  26041-2 0  9995", "line2": "2 30914  99.9832 240.6486 0516904 330.1456  27.1068 13.08882678592153"}}, "geometry": {"type": "Point", "coordinates": [88.44136706601113, 66.44857272898294]}}, {"type": "Feature", "properties": {"norad_id": 30915, "name": "FENGYUN 1C DEB", "group": "fengyun-1c-debris", "lat": -65.73476127750781, "lon": 98.53733148155122, "alt_km": 852.1683879941666, "timestamp": "2025-12-27T15:27:11.470163+00:00", "meta": {"OBJECT_NAME": "FENGYUN 1C DEB", "OBJECT_ID": "1999-025AZD", "EPOCH": "2025-12-27T03:58:36.443712", "MEAN_MOTION": 14.25145459, "ECCENTRICITY": 0.00530092, "INCLINATION": 98.9407, "RA_OF_ASC_NODE": 77.6106, "ARG_OF_PERICENTER": 127.9014, "MEAN_ANOMALY": 232.6975, "EPHEMERIS_TYPE": 0, "CLASSIFICATION_TYPE": "U", "NORAD_CAT_ID": 30915, "ELEMENT_SET_NO": 999, "REV_AT_EPOCH": 96718, "BSTAR": 0.0018130559, "MEAN_MOTION_DOT": 4.275e-05, "MEAN_MOTION_DDOT": 0}, "tle": {"line1": "1 30915U 99025AZD 25361.16569958  .00004275  00000+0  18131-2 0  9992", "line2": "2 30915  98.9407  77.6106 0053009 127.9014 232.6975 14.25145459967180"}}, "geometry": {"type": "Point", "coordinates": [98.53733148155122, -65.73476127750781]}}, {"type": "Feature", "properties": {"norad_id": 30916, "name": "FENGYUN 1C DEB", "group": "fengyun-1c-debris", "lat": -6.113819027215866, "lon": -119.0088159408612, "alt_km": 827.2089424003598, "timestamp": "2025-12-27T15:27:11.470173+00:00", "meta": {"OBJECT_NAME": "FENGYUN 1C DEB", "OBJECT_ID": "1999-025AZE", "EPOCH": "2025-12-27T02:46:38.987328", "MEAN_MOTION": 14.08857092, "ECCENTRICITY": 0.00635214, "INCLINATION": 99.0002, "RA_OF_ASC_NODE": 61.4367, "ARG_OF_PERICENTER": 218.0424, "MEAN_ANOMALY": 171.1407, "EPHEMERIS_TYPE": 0, "CLASSIFICATION_TYPE": "U", "NORAD_CAT_ID": 30916, "ELEMENT_SET_NO": 999, "REV_AT_EPOCH": 96046, "BSTAR": 0.001530341, "MEAN_MOTION_DOT": 2.649e-05, "MEAN_MOTION_DDOT": 0}, "tle": {"line1": "1 30916U 99025AZE 25361.11572902  .00002649  00000+0  15303-2 0  9992", "line2": "2 30916  99.0002  61.4367 0063521 218.0424 171.1407 14.08857092960466"}}, "geometry": {"type": "Point", "coordinates": [-119.0088159408612, -6.113819027215866]}}, {"type": "Feature", "properties": {"norad_id": 30918, "name": "FENGYUN 1C DEB", "group": "fengyun-1c-debris", "lat": -14.147171343788612, "lon": 114.74069645585152, "alt_km": 923.6310101119798, "timestamp": "2025-12-27T15:27:11.470183+00:00", "meta": {"OBJECT_NAME": "FENGYUN 1C DEB", "OBJECT_ID": "1999-025AZG", "EPOCH": "2025-12-27T07:11:21.220224", "MEAN_MOTION": 13.96864915, "ECCENTRICITY": 0.01569106, "INCLINATION": 98.4164, "RA_OF_ASC_NODE": 112.2867, "ARG_OF_PERICENTER": 84.913, "MEAN_ANOMALY": 332.0983, "EPHEMERIS_TYPE": 0, "CLASSIFICATION_TYPE": "U", "NORAD_CAT_ID": 30918, "ELEMENT_SET_NO": 999, "REV_AT_EPOCH": 95256, "BSTAR": 0.00087898187, "MEAN_MOTION_DOT": 1.319e-05, "MEAN_MOTION_DDOT": 0}, "tle": {"line1": "1 30918U 99025AZG 25361.29955116  .00001319  00000+0  87898-3 0  9997", "line2": "2 30918  98.4164 112.2867 0156910  84.9130 332.0983 13.96864915952566"}}, "geometry": {"type": "Point", "coordinates": [114.74069645585152, -14.147171343788612]}}, {"type": "Feature", "properties": {"norad_id": 30920, "name": "FENGYUN 1C DEB", "group": "fengyun-1c-debris", "lat": -56.58085718718048, "lon": -50.79094600157144, "alt_km": 920.8922973421813, "timestamp": "2025-12-27T15:27:11.470193+00:00", "meta": {"OBJECT_NAME": "FENGYUN 1C DEB", "OBJECT_ID": "1999-025AZJ", "EPOCH": "2025-12-26T16:18:21.432672", "MEAN_MOTION": 14.16789745, "ECCENTRICITY": 0.01077501, "INCLINATION": 98.9176, "RA_OF_ASC_NODE": 142.0077, "ARG_OF_PERICENTER": 57.9231, "MEAN_ANOMALY": 303.2351, "EPHEMERIS_TYPE": 0, "CLASSIFICATION_TYPE": "U", "NORAD_CAT_ID": 30920, "ELEMENT_SET_NO": 999, "REV_AT_EPOCH": 95291, "BSTAR": 0.0027166577, "MEAN_MOTION_DOT": 5.715e-05, "MEAN_MOTION_DDOT": 0}, "tle": {"line1": "1 30920U 99025AZJ 25360.67941473  .00005715  00000+0  27167-2 0  9998", "line2": "2 30920  98.9176 142.0077 0107750  57.9231 303.2351 14.16789745952919"}}, "geometry": {"type": "Point", "coordinates": [-50.79094600157144, -56.58085718718048]}}, {"type": "Feature", "properties": {"norad_id": 30921, "name": "FENGYUN 1C DEB", "group": "fengyun-1c-debris", "lat": -80.20161322889405, "lon": -154.9019650401688, "alt_km": 788.2239494712958, "timestamp": "2025-12-27T15:27:11.470204+00:00", "meta": {"OBJECT_NAME": "FENGYUN 1C DEB", "OBJECT_ID": "1999-025AZK", "EPOCH": "2025-12-27T05:56:50.788320", "MEAN_MOTION": 14.32863701, "ECCENTRICITY": 0.00163814, "INCLINATION": 98.8416, "RA_OF_ASC_NODE": 89.0209, "ARG_OF_PERICENTER": 350.858, "MEAN_ANOMALY": 33.183, "EPHEMERIS_TYPE": 0, "CLASSIFICATION_TYPE": "U", "NORAD_CAT_ID": 30921, "ELEMENT_SET_NO": 999, "REV_AT_EPOCH": 97032, "BSTAR": 0.0018740092, "MEAN_MOTION_DOT": 5.08e-05, "MEAN_MOTION_DDOT": 0}, "tle": {"line1": "1 30921U 99025AZK 25361.24781005  .00005080  00000+0  18740-2 0  9998", "line2": "2 30921  98.8416  89.0209 0016381 350.8580  33.1830 14.32863701970323"}}, "geometry": {"type": "Point", "coordinates": [-154.9019650401688, -80.20161322889405]}}, {"type": "Feature", "properties": {"norad_id": 30922, "name": "FENGYUN 1C DEB", "group": "fengyun-1c-debris", "lat": 67.88146158209987, "lon": -140.9576429501609, "alt_km": 828.6504628843159, "timestamp": "2025-12-27T15:27:11.470214+00:00", "meta": {"OBJECT_NAME": "FENGYUN 1C DEB", "OBJECT_ID": "1999-025AZL", "EPOCH": "2025-12-26T12:32:51.508896", "MEAN_MOTION": 14.17493129, "ECCENTRICITY": 0.0014014, "INCLINATION": 98.6396, "RA_OF_ASC_NODE": 15.985, "ARG_OF_PERICENTER": 15.2933, "MEAN_ANOMALY": 137.4014, "EPHEMERIS_TYPE": 0, "CLASSIFICATION_TYPE": "U", "NORAD_CAT_ID": 30922, "ELEMENT_SET_NO": 999, "REV_AT_EPOCH": 96759, "BSTAR": 0.0006125, "MEAN_MOTION_DOT": 1.201e-05, "MEAN_MOTION_DDOT": 0}, "tle": {"line1": "1 30922U 99025AZL 25360.52281839  .00001201  00000+0  61250-3 0  9995", "line2": "2 30922  98.6396  15.9850 0014014  15.2933 137.4014 14.17493129967597"}}, "geometry": {"type": "Point", "coordinates": [-140.9576429501609, 67.88146158209987]}}, {"type": "Feature", "properties": {"norad_id": 30925, "name": "FENGYUN 1C DEB", "group": "fengyun-1c-debris", "lat": 2.7938754224719733, "lon": -45.50620425247072, "alt_km": 727.2590926773, "timestamp": "2025-12-27T15:27:11.470224+00:00", "meta": {"OBJECT_NAME": "FENGYUN 1C DEB", "OBJECT_ID": "1999-025AZP", "EPOCH": "2025-12-26T15:24:53.741088", "MEAN_MOTION": 14.43349249, "ECCENTRICITY": 0.003338, "INCLINATION": 98.8809, "RA_OF_ASC_NODE": 133.0128, "ARG_OF_PERICENTER": 197.4649, "MEAN_ANOMALY": 178.3104, "EPHEMERIS_TYPE": 0, "CLASSIFICATION_TYPE": "U", "NORAD_CAT_ID": 30925, "ELEMENT_SET_NO": 999, "REV_AT_EPOCH": 97273, "BSTAR": 0.0028008, "MEAN_MOTION_DOT": 9.474e-05, "MEAN_MOTION_DDOT": 0}, "tle": {"line1": "1 30925U 99025AZP 25360.64228867  .00009474  00000+0  28008-2 0  9996", "line2": "2 30925  98.8809 133.0128 0033380 197.4649 178.3104 14.43349249972733"}}, "geometry": {"type": "Point", "coordinates": [-45.50620425247072, 2.7938754224719733]}}, {"type": "Feature", "properties": {"norad_id": 30926, "name": "FENGYUN 1C DEB", "group": "fengyun-1c-debris", "lat": -76.91092934892113, "lon": -14.140856948654253, "alt_km": 538.3265428671775, "timestamp": "2025-12-27T15:27:11.470234+00:00", "meta": {"OBJECT_NAME": "FENGYUN 1C DEB", "OBJECT_ID": "1999-025AZQ", "EPOCH": "2025-12-26T18:50:41.165088", "MEAN_MOTION": 14.8955659, "ECCENTRICITY": 0.01642283, "INCLINATION": 98.8036, "RA_OF_ASC_NODE": 303.1023, "ARG_OF_PERICENTER": 336.7027, "MEAN_ANOMALY": 22.6802, "EPHEMERIS_TYPE": 0, "CLASSIFICATION_TYPE": "U", "NORAD_CAT_ID": 30926, "ELEMENT_SET_NO": 999, "REV_AT_EPOCH": 976, "BSTAR": 0.00069862808, "MEAN_MOTION_DOT": 8.521e-05, "MEAN_MOTION_DDOT": 0}, "tle": {"line1": "1 30926U 99025AZQ 25360.78519867  .00008521  00000+0  69863-3 0  9992", "line2": "2 30926  98.8036 303.1023 0164228 336.7027  22.6802 14.89556590  9763"}}, "geometry": {"type": "Point", "coordinates": [-14.140856948654253, -76.91092934892113]}}, {"type": "Feature", "properties": {"norad_id": 30927, "name": "FENGYUN 1C DEB", "group": "fengyun-1c-debris", "lat": 49.694857913351264, "lon": -106.61458302596077, "alt_km": 926.9760414529892, "timestamp": "2025-12-27T15:27:11.470244+00:00", "meta": {"OBJECT_NAME": "FENGYUN 1C DEB", "OBJECT_ID": "1999-025AZR", "EPOCH": "2025-12-27T02:54:37.100736", "MEAN_MOTION": 14.0905928, "ECCENTRICITY": 0.00983811, "INCLINATION": 99.1808, "RA_OF_ASC_NODE": 61.8617, "ARG_OF_PERICENTER": 325.1538, "MEAN_ANOMALY": 34.3215, "EPHEMERIS_TYPE": 0, "CLASSIFICATION_TYPE": "U", "NORAD_CAT_ID": 30927, "ELEMENT_SET_NO": 999, "REV_AT_EPOCH": 95886, "BSTAR": 0.0017895793, "MEAN_MOTION_DOT": 3.198e-05, "MEAN_MOTION_DDOT": 0}, "tle": {"line1": "1 30927U 99025AZR 25361.12126274  .00003198  00000+0  17896-2 0  9991", "line2": "2 30927  99.1808  61.8617 0098381 325.1538  34.3215 14.09059280958865"}}, "geometry": {"type": "Point", "coordinates": [-106.61458302596077, 49.694857913351264]}}]}